start=new Date('2022-06-20T00:00:00.000Z').valueOf();
sats=[{"LAUNCH_DATE":"2021-12-18","ECCENTRICITY":"0.00022380","CLASSIFICATION_TYPE":"U","MEAN_MOTION_DDOT":"0.0000000000000","COUNTRY_CODE":"US","OBJECT_NAME":"STARLINK-3283","TIME_SYSTEM":"UTC","ELEMENT_SET_NO":"999","RA_OF_ASC_NODE":"230.4153","MEAN_ELEMENT_THEORY":"SGP4","FILE":"3497669","ARG_OF_PERICENTER":"31.1798","TLE_LINE1":"1 50179U 21125Z   22170.57789271 -.00000249  00000-0  25000-5 0  9999","INCLINATION":"53.2176","PERIOD":"95.438","DECAY_DATE":null,"MEAN_ANOMALY":"328.9326","MEAN_MOTION_DOT":"-0.00000249","TLE_LINE2":"2 50179  53.2176 230.4153 0002238  31.1798 328.9326 15.08833953 31428","CENTER_NAME":"EARTH","RCS_SIZE":"LARGE","EPHEMERIS_TYPE":"0","BSTAR":"0.00000250000000","GP_ID":"206448668","REF_FRAME":"TEME","APOAPSIS":"541.312","NORAD_CAT_ID":"50179","PERIAPSIS":"538.216","SITE":"AFWTR","MEAN_MOTION":"15.08833953","OBJECT_ID":"2021-125Z","SEMIMAJOR_AXIS":"6917.899","REV_AT_EPOCH":"3142","EPOCH":"2022-06-19T13:52:09.930144","OBJECT_TYPE":"PAYLOAD"},{"LAUNCH_DATE":"2021-12-18","ECCENTRICITY":"0.00026710","CLASSIFICATION_TYPE":"U","MEAN_MOTION_DDOT":"0.0000000000000","COUNTRY_CODE":"US","OBJECT_NAME":"STARLINK-3265","TIME_SYSTEM":"UTC","ELEMENT_SET_NO":"999","RA_OF_ASC_NODE":"228.9954","MEAN_ELEMENT_THEORY":"SGP4","FILE":"3497669","ARG_OF_PERICENTER":"27.6245","TLE_LINE1":"1 50180U 21125AA  22170.89437545  .00001103  00000-0  87430-4 0  9993","INCLINATION":"53.2176","PERIOD":"95.438","DECAY_DATE":null,"MEAN_MOTION_DOT":"0.00001103","MEAN_ANOMALY":"332.4889","TLE_LINE2":"2 50180  53.2176 228.9954 0002671  27.6245 332.4889 15.08830965 31513","CENTER_NAME":"EARTH","EPHEMERIS_TYPE":"0","RCS_SIZE":"LARGE","BSTAR":"0.00008743000000","REF_FRAME":"TEME","GP_ID":"206448917","APOAPSIS":"541.621","NORAD_CAT_ID":"50180","PERIAPSIS":"537.925","SITE":"AFWTR","MEAN_MOTION":"15.08830965","SEMIMAJOR_AXIS":"6917.908","OBJECT_ID":"2021-125AA","REV_AT_EPOCH":"3151","EPOCH":"2022-06-19T21:27:54.038880","OBJECT_TYPE":"PAYLOAD"},{"EPOCH":"2022-06-19T21:17:17.789280","OBJECT_TYPE":"PAYLOAD","REV_AT_EPOCH":"3147","SITE":"AFWTR","MEAN_MOTION":"15.08839684","SEMIMAJOR_AXIS":"6917.881","OBJECT_ID":"2021-125AB","APOAPSIS":"541.395","NORAD_CAT_ID":"50181","PERIAPSIS":"538.098","BSTAR":"0.00017036000000","REF_FRAME":"TEME","GP_ID":"206449168","MEAN_MOTION_DOT":"0.00002424","MEAN_ANOMALY":"328.5608","TLE_LINE2":"2 50181  53.2161 229.0188 0002383  31.5527 328.5608 15.08839684 31473","CENTER_NAME":"EARTH","RCS_SIZE":"LARGE","EPHEMERIS_TYPE":"0","PERIOD":"95.438","DECAY_DATE":null,"INCLINATION":"53.2161","FILE":"3497669","TLE_LINE1":"1 50181U 21125AB  22170.88701145  .00002424  00000-0  17036-3 0  9994","ARG_OF_PERICENTER":"31.5527","MEAN_ELEMENT_THEORY":"SGP4","RA_OF_ASC_NODE":"229.0188","ELEMENT_SET_NO":"999","OBJECT_NAME":"STARLINK-3285","TIME_SYSTEM":"UTC","COUNTRY_CODE":"US","CLASSIFICATION_TYPE":"U","MEAN_MOTION_DDOT":"0.0000000000000","ECCENTRICITY":"0.00023830","LAUNCH_DATE":"2021-12-18"},{"MEAN_ELEMENT_THEORY":"SGP4","TLE_LINE1":"1 50182U 21125AC  22170.87964775  .00001037  00000-0  83279-4 0  9996","ARG_OF_PERICENTER":"31.1554","FILE":"3497669","ELEMENT_SET_NO":"999","RA_OF_ASC_NODE":"229.0528","COUNTRY_CODE":"US","OBJECT_NAME":"STARLINK-3277","TIME_SYSTEM":"UTC","LAUNCH_DATE":"2021-12-18","ECCENTRICITY":"0.00027750","CLASSIFICATION_TYPE":"U","MEAN_MOTION_DDOT":"0.0000000000000","REV_AT_EPOCH":"3150","EPOCH":"2022-06-19T21:06:41.565600","OBJECT_TYPE":"PAYLOAD","NORAD_CAT_ID":"50182","APOAPSIS":"541.675","PERIAPSIS":"537.836","SITE":"AFWTR","SEMIMAJOR_AXIS":"6917.891","OBJECT_ID":"2021-125AC","MEAN_MOTION":"15.08836604","MEAN_ANOMALY":"328.9602","MEAN_MOTION_DOT":"0.00001037","EPHEMERIS_TYPE":"0","RCS_SIZE":"LARGE","CENTER_NAME":"EARTH","TLE_LINE2":"2 50182  53.2186 229.0528 0002775  31.1554 328.9602 15.08836604 31501","GP_ID":"206449415","REF_FRAME":"TEME","BSTAR":"0.00008327900000","INCLINATION":"53.2186","PERIOD":"95.438","DECAY_DATE":null},{"OBJECT_TYPE":"PAYLOAD","EPOCH":"2022-06-19T21:11:59.140032","REV_AT_EPOCH":"3151","SITE":"AFWTR","OBJECT_ID":"2021-125AD","SEMIMAJOR_AXIS":"6917.861","MEAN_MOTION":"15.08846464","NORAD_CAT_ID":"50183","APOAPSIS":"541.782","PERIAPSIS":"537.669","GP_ID":"206448168","REF_FRAME":"TEME","BSTAR":"0.00008160700000","MEAN_ANOMALY":"341.2307","MEAN_MOTION_DOT":"0.00001011","EPHEMERIS_TYPE":"0","RCS_SIZE":"LARGE","TLE_LINE2":"2 50183  53.2186 229.0442 0002973  18.8795 341.2307 15.08846464 31512","CENTER_NAME":"EARTH","PERIOD":"95.437","DECAY_DATE":null,"INCLINATION":"53.2186","ARG_OF_PERICENTER":"18.8795","TLE_LINE1":"1 50183U 21125AD  22170.88332338  .00001011  00000-0  81607-4 0  9997","FILE":"3497669","MEAN_ELEMENT_THEORY":"SGP4","RA_OF_ASC_NODE":"229.0442","ELEMENT_SET_NO":"999","OBJECT_NAME":"STARLINK-3281","TIME_SYSTEM":"UTC","COUNTRY_CODE":"US","CLASSIFICATION_TYPE":"U","MEAN_MOTION_DDOT":"0.0000000000000","ECCENTRICITY":"0.00029730","LAUNCH_DATE":"2021-12-18"},{"PERIOD":"95.438","DECAY_DATE":null,"INCLINATION":"53.2184","BSTAR":"0.00012486000000","REF_FRAME":"TEME","GP_ID":"206448417","MEAN_MOTION_DOT":"0.00001699","MEAN_ANOMALY":"329.0061","CENTER_NAME":"EARTH","TLE_LINE2":"2 50185  53.2184 229.0102 0002472  31.1077 329.0061 15.08838613 31473","RCS_SIZE":"LARGE","EPHEMERIS_TYPE":"0","SITE":"AFWTR","MEAN_MOTION":"15.08838613","SEMIMAJOR_AXIS":"6917.885","OBJECT_ID":"2021-125AF","NORAD_CAT_ID":"50185","APOAPSIS":"541.460","PERIAPSIS":"538.040","OBJECT_TYPE":"PAYLOAD","EPOCH":"2022-06-19T21:22:35.217696","REV_AT_EPOCH":"3147","CLASSIFICATION_TYPE":"U","MEAN_MOTION_DDOT":"0.0000000000000","ECCENTRICITY":"0.00024720","LAUNCH_DATE":"2021-12-18","OBJECT_NAME":"STARLINK-3279","TIME_SYSTEM":"UTC","COUNTRY_CODE":"US","RA_OF_ASC_NODE":"229.0102","ELEMENT_SET_NO":"999","FILE":"3497669","TLE_LINE1":"1 50185U 21125AF  22170.89068539  .00001699  00000-0  12486-3 0  9999","ARG_OF_PERICENTER":"31.1077","MEAN_ELEMENT_THEORY":"SGP4"},{"EPOCH":"2022-06-19T13:45:31.870656","OBJECT_TYPE":"PAYLOAD","REV_AT_EPOCH":"3127","MEAN_MOTION":"15.08833389","OBJECT_ID":"2021-125AG","SEMIMAJOR_AXIS":"6917.901","SITE":"AFWTR","PERIAPSIS":"537.710","APOAPSIS":"541.822","NORAD_CAT_ID":"50186","BSTAR":"0.00013422000000","GP_ID":"206449669","REF_FRAME":"TEME","TLE_LINE2":"2 50186  53.2175 240.4223 0002972  22.5372 337.5750 15.08833389 31274","CENTER_NAME":"EARTH","RCS_SIZE":"LARGE","EPHEMERIS_TYPE":"0","MEAN_MOTION_DOT":"0.00001848","MEAN_ANOMALY":"337.5750","DECAY_DATE":null,"PERIOD":"95.438","INCLINATION":"53.2175","FILE":"3497669","TLE_LINE1":"1 50186U 21125AG  22170.57328554  .00001848  00000-0  13422-3 0  9998","ARG_OF_PERICENTER":"22.5372","MEAN_ELEMENT_THEORY":"SGP4","RA_OF_ASC_NODE":"240.4223","ELEMENT_SET_NO":"999","TIME_SYSTEM":"UTC","OBJECT_NAME":"STARLINK-3274","COUNTRY_CODE":"US","MEAN_MOTION_DDOT":"0.0000000000000","CLASSIFICATION_TYPE":"U","LAUNCH_DATE":"2021-12-18","ECCENTRICITY":"0.00029720"},{"APOAPSIS":"541.111","NORAD_CAT_ID":"50187","PERIAPSIS":"538.368","SITE":"AFWTR","MEAN_MOTION":"15.08841949","OBJECT_ID":"2021-125AH","SEMIMAJOR_AXIS":"6917.874","REV_AT_EPOCH":"3158","EPOCH":"2022-06-19T20:46:49.325088","OBJECT_TYPE":"PAYLOAD","INCLINATION":"53.2158","PERIOD":"95.437","DECAY_DATE":null,"MEAN_ANOMALY":"317.3090","MEAN_MOTION_DOT":"0.00000613","CENTER_NAME":"EARTH","TLE_LINE2":"2 50187  53.2158 219.1155 0001982  42.8056 317.3090 15.08841949 31585","EPHEMERIS_TYPE":"0","RCS_SIZE":"LARGE","BSTAR":"0.00005661600000","REF_FRAME":"TEME","GP_ID":"206449916","ELEMENT_SET_NO":"999","RA_OF_ASC_NODE":"219.1155","MEAN_ELEMENT_THEORY":"SGP4","FILE":"3497669","ARG_OF_PERICENTER":"42.8056","TLE_LINE1":"1 50187U 21125AH  22170.86584867  .00000613  00000-0  56616-4 0  9994","ECCENTRICITY":"0.00019820","LAUNCH_DATE":"2021-12-18","CLASSIFICATION_TYPE":"U","MEAN_MOTION_DDOT":"0.0000000000000","COUNTRY_CODE":"US","OBJECT_NAME":"STARLINK-3272","TIME_SYSTEM":"UTC"},{"RA_OF_ASC_NODE":"219.0929","ELEMENT_SET_NO":"999","TLE_LINE1":"1 50188U 21125AJ  22170.86953815  .00001887  00000-0  13666-3 0  9999","ARG_OF_PERICENTER":"35.1691","FILE":"3497669","MEAN_ELEMENT_THEORY":"SGP4","CLASSIFICATION_TYPE":"U","MEAN_MOTION_DDOT":"0.0000000000000","ECCENTRICITY":"0.00020470","LAUNCH_DATE":"2021-12-18","OBJECT_NAME":"STARLINK-3275","TIME_SYSTEM":"UTC","COUNTRY_CODE":"US","SITE":"AFWTR","SEMIMAJOR_AXIS":"6917.880","OBJECT_ID":"2021-125AJ","MEAN_MOTION":"15.08839994","APOAPSIS":"541.161","NORAD_CAT_ID":"50188","PERIAPSIS":"538.329","OBJECT_TYPE":"PAYLOAD","EPOCH":"2022-06-19T20:52:08.096160","REV_AT_EPOCH":"3164","PERIOD":"95.438","DECAY_DATE":null,"INCLINATION":"53.2135","REF_FRAME":"TEME","GP_ID":"206448669","BSTAR":"0.00013666000000","MEAN_ANOMALY":"324.9436","MEAN_MOTION_DOT":"0.00001887","RCS_SIZE":"LARGE","EPHEMERIS_TYPE":"0","TLE_LINE2":"2 50188  53.2135 219.0929 0002047  35.1691 324.9436 15.08839994 31644","CENTER_NAME":"EARTH"},{"INCLINATION":"53.2170","DECAY_DATE":null,"PERIOD":"95.438","RCS_SIZE":"LARGE","EPHEMERIS_TYPE":"0","TLE_LINE2":"2 50189  53.2170 229.0890 0001801  49.5117 310.6032 15.08838826 31503","CENTER_NAME":"EARTH","MEAN_ANOMALY":"310.6032","MEAN_MOTION_DOT":"0.00001272","REF_FRAME":"TEME","GP_ID":"206448918","BSTAR":"0.00009800900000","PERIAPSIS":"538.503","NORAD_CAT_ID":"50189","APOAPSIS":"540.995","SEMIMAJOR_AXIS":"6917.884","OBJECT_ID":"2021-125AK","MEAN_MOTION":"15.08838826","SITE":"AFWTR","REV_AT_EPOCH":"3150","OBJECT_TYPE":"PAYLOAD","EPOCH":"2022-06-19T20:56:05.055936","LAUNCH_DATE":"2021-12-18","ECCENTRICITY":"0.00018010","MEAN_MOTION_DDOT":"0.0000000000000","CLASSIFICATION_TYPE":"U","COUNTRY_CODE":"US","TIME_SYSTEM":"UTC","OBJECT_NAME":"STARLINK-3276","ELEMENT_SET_NO":"999","RA_OF_ASC_NODE":"229.0890","MEAN_ELEMENT_THEORY":"SGP4","TLE_LINE1":"1 50189U 21125AK  22170.87228074  .00001272  00000-0  98009-4 0  9996","ARG_OF_PERICENTER":"49.5117","FILE":"3497669"}];
